[{"OBJECT_NAME":"ORBCOMM FM06","OBJECT_ID":"1997-084G","EPOCH":"2026-03-09T15:06:31.906944","MEAN_MOTION":14.47270413,"ECCENTRICITY":0.0001937,"INCLINATION":45.0122,"RA_OF_ASC_NODE":171.8858,"ARG_OF_PERICENTER":196.1809,"MEAN_ANOMALY":301.713,"EPHEMERIS_TYPE":0,"CLASSIFICATION_TYPE":"U","NORAD_CAT_ID":25118,"ELEMENT_SET_NO":999,"REV_AT_EPOCH":47996,"BSTAR":0.00064878,"MEAN_MOTION_DOT":2.251e-5,"MEAN_MOTION_DDOT":0},{"OBJECT_NAME":"NOAA 16 DEB","OBJECT_ID":"2000-055PR","EPOCH":"2026-03-09T04:25:22.643040","MEAN_MOTION":14.47664307,"ECCENTRICITY":0.00123153,"INCLINATION":98.7861,"RA_OF_ASC_NODE":191.2789,"ARG_OF_PERICENTER":129.7729,"MEAN_ANOMALY":230.4549,"EPHEMERIS_TYPE":0,"CLASSIFICATION_TYPE":"U","NORAD_CAT_ID":41711,"ELEMENT_SET_NO":999,"REV_AT_EPOCH":51365,"BSTAR":0.0033457524,"MEAN_MOTION_DOT":0.00012324,"MEAN_MOTION_DDOT":0}]
